COSMOS 2426 (717)       
1 29671U 06062B   20037.09265490  .00000073  00000-0  10000-3 0  9990
2 29671  65.0182 272.3867 0019672 170.7529 122.3196  2.12962301102070
COSMOS 2433 (720)       
1 32275U 07052A   20037.08818738 -.00000005  00000-0  10000-3 0  9998
2 32275  65.9382  33.3313 0005486 264.7503  97.2978  2.13104395 95598
COSMOS 2432 (719)       
1 32276U 07052B   20037.14129116 -.00000005  00000-0  10000-3 0  9991
2 32276  65.9522  33.4158 0012368 318.8258  34.4389  2.13103718 95584
COSMOS 2434 (721)       
1 32393U 07065A   20036.75535508  .00000074  00000-0  00000-0 0  9998
2 32393  64.6234 270.9745 0004284  78.3772 275.7539  2.13103006 94280
COSMOS 2436 (723)       
1 32395U 07065C   20034.83627453  .00000057  00000-0  10000-3 0  9993
2 32395  64.6324 271.0874 0015340 344.9378 112.3172  2.13280839 94184
COSMOS 2456 (730)       
1 36111U 09070A   20037.11543272  .00000004  00000-0  00000-0 0  9999
2 36111  64.2169 150.6228 0002971 334.6490 109.1067  2.13102713 78968
COSMOS 2457 (733)       
1 36112U 09070B   20036.95710962  .00000004  00000-0  00000+0 0  9992
2 36112  64.1991 150.5240 0006107 157.5924 288.6178  2.13101437 78961
COSMOS 2459 (731)       
1 36400U 10007A   20037.09325882 -.00000007  00000-0  10000-3 0  9992
2 36400  65.8434  32.3173 0026563 344.1432 236.7500  2.13105140 77315
COSMOS 2461 (735)       
1 36401U 10007B   20037.22699681 -.00000007  00000-0  10000-3 0  9999
2 36401  65.8359  32.2847 0004825  45.6996 187.3894  2.13101973 77311
COSMOS 2460 (732)       
1 36402U 10007C   20037.16597481 -.00000007  00000-0  10000-3 0  9998
2 36402  65.8261  32.2467 0002752 276.3004 309.3696  2.13101433 77319
COSMOS 2464 (736)       
1 37139U 10041C   20036.89378131  .00000075  00000-0  00000-0 0  9992
2 37139  64.2239 270.4748 0027625  12.8323 312.0823  2.13100708 73375
COSMOS 2474 (742)       
1 37829U 11055A   20037.08012917  .00000005  00000-0  00000-0 0  9996
2 37829  64.5371 151.5931 0008526 242.5001  29.5352  2.13101976 64957
COSMOS 2476 (744)       
1 37867U 11064A   20037.01792481  .00000005  00000-0  00000-0 0  9992
2 37867  64.5177 151.6419 0018290 235.3564  35.1480  2.13101855 64308
COSMOS 2477 (745)       
1 37868U 11064B   20037.22639405  .00000005  00000-0  00000-0 0  9992
2 37868  64.5256 151.6890 0016120 236.3451  12.6614  2.13101676 64261
COSMOS 2475 (743)       
1 37869U 11064C   20037.28780031  .00000005  00000-0  00000-0 0  9991
2 37869  64.5323 151.6881 0019848 260.5951 352.8134  2.13101833 64273
COSMOS 2485 (747)       
1 39155U 13019A   20036.57269795  .00000006  00000-0  00000-0 0  9994
2 39155  64.6857 151.8969 0018904 230.6602 102.9162  2.13101786 52761
COSMOS 2492 (754)       
1 39620U 14012A   20037.30297218 -.00000008  00000-0  10000-3 0  9995
2 39620  65.7155  32.0438 0015672 318.2008 250.7163  2.13103339 45732
COSMOS 2500 (755)       
1 40001U 14032A   20036.08135064 -.00000007  00000-0  00000+0 0  9990
2 40001  65.6574  32.0092 0007758 226.5988 345.9758  2.13102600 43927
COSMOS 2501 (702K)      
1 40315U 14075A   20036.95502514  .00000073  00000-0  00000-0 0  9992
2 40315  63.9417 271.4688 0014979 207.4307 111.4257  2.13098480 40341
COSMOS 2514 (751)       
1 41330U 16008A   20037.29941257 -.00000009  00000-0  00000-0 0  9997
2 41330  65.4595  31.8741 0011372 227.9615  21.2385  2.13103018 31113
COSMOS 2516 (753)       
1 41554U 16032A   20034.85946970  .00000056  00000-0  00000+0 0  9998
2 41554  64.1649 271.5756 0010974 219.4278 208.6031  2.13101716 28673
COSMOS 2522 (752)       
1 42939U 17055A   20036.57665976  .00000071  00000-0  00000+0 0  9994
2 42939  64.3965 271.6575 0006045 255.9608 275.9903  2.13101998 18463
COSMOS 2527 (756)       
1 43508U 18053A   20037.27641368  .00000006  00000-0  00000-0 0  9992
2 43508  64.8499 151.6945 0006680 224.1033 156.2949  2.13102599 12773
COSMOS 2529 (757)       
1 43687U 18086A   20036.99148441  .00000074  00000-0  00000-0 0  9993
2 43687  64.6144 271.7275 0008919 282.1701 163.6581  2.13102085  9780
COSMOS 2534 (758)       
1 44299U 19030A   20036.86057633  .00000073  00000-0  00000+0 0  9999
2 44299  64.6803 271.5326 0012750 297.5933 182.9086  2.13101874  5428
